{
    "links": {
        "self": "http://www.neowsapp.com/rest/v1/neo/3580323?api_key=iIulBulltgU6a56xZRHN4H3l9WmuAYTsLGpBGhQ2"
    },
    "id": "3580323",
    "neo_reference_id": "3580323",
    "name": "(2011 SL189)",
    "designation": "2011 SL189",
    "nasa_jpl_url": "http://ssd.jpl.nasa.gov/sbdb.cgi?sstr=3580323",
    "absolute_magnitude_h": 24.9,
    "estimated_diameter": {
        "kilometers": {
            "estimated_diameter_min": 0.0278326768,
            "estimated_diameter_max": 0.0622357573
        },
        "meters": {
            "estimated_diameter_min": 27.8326768072,
            "estimated_diameter_max": 62.2357573367
        },
        "miles": {
            "estimated_diameter_min": 0.0172944182,
            "estimated_diameter_max": 0.0386714948
        },
        "feet": {
            "estimated_diameter_min": 91.3145593761,
            "estimated_diameter_max": 204.1855621004
        }
    },
    "is_potentially_hazardous_asteroid": false,
    "close_approach_data": [
        {
            "close_approach_date": "2011-10-20",
            "close_approach_date_full": "2011-Oct-20 19:51",
            "epoch_date_close_approach": 1319140260000,
            "relative_velocity": {
                "kilometers_per_second": "8.4317837385",
                "kilometers_per_hour": "30354.4214586041",
                "miles_per_hour": "18861.0570446532"
            },
            "miss_distance": {
                "astronomical": "0.0740828893",
                "lunar": "28.8182439377",
                "kilometers": "11082642.442725791",
                "miles": "6886434.6856902758"
            },
            "orbiting_body": "Earth"
        }
    ],
    "orbital_data": {
        "orbit_id": "4",
        "orbit_determination_date": "2017-04-06 08:52:36",
        "first_observation_date": "2011-09-29",
        "last_observation_date": "2011-09-30",
        "data_arc_in_days": 1,
        "observations_used": 11,
        "orbit_uncertainty": "9",
        "minimum_orbit_intersection": ".038428",
        "jupiter_tisserand_invariant": "3.320",
        "epoch_osculation": "2455834.5",
        "eccentricity": ".5657011104053937",
        "semi_major_axis": "2.352922464152621",
        "inclination": "1.390801577235065",
        "ascending_node_longitude": "347.9521366814537",
        "orbital_period": "1318.286640696478",
        "perihelion_distance": "1.021871613483688",
        "perihelion_argument": "62.97349325592044",
        "aphelion_distance": "3.683973314821554",
        "perihelion_time": "2455873.364906158451",
        "mean_anomaly": "349.386704086108",
        "mean_motion": ".2730817326721938",
        "equinox": "J2000",
        "orbit_class": {
            "orbit_class_type": "AMO",
            "orbit_class_description": "Near-Earth asteroid orbits similar to that of 1221 Amor",
            "orbit_class_range": "1.017 AU < q (perihelion) < 1.3 AU"
        }
    },
    "is_sentry_object": false
}